STARLINK-36641          
1 67589U 26018A   26041.16668981  .00012607  00000+0  66424-4 0  9991
2 67589  97.2811 105.5457 0001653  84.6895 160.3789 15.80828619  2911
STARLINK-36376          
1 67590U 26018B   26041.16668981  .00079572  00000+0  41285-3 0  9994
2 67590  97.2796 105.5476 0001372  82.0967 168.1739 15.80791182  2966
STARLINK-36391          
1 67591U 26018C   26041.16668981  .00058255  00000+0  30302-3 0  9998
2 67591  97.2798 105.5504 0001689  86.4587 170.0255 15.80802764  2962
STARLINK-36603          
1 67592U 26018D   26041.16668981  .00118785  00000+0  61342-3 0  9992
2 67592  97.2796 105.5522 0000954  70.5033 190.2211 15.80782616  2931
STARLINK-36634          
1 67593U 26018E   26041.16668981  .00038084  00000+0  19878-3 0  9993
2 67593  97.2798 105.5547 0001472  71.3472 195.9180 15.80806020  2925
STARLINK-36638          
1 67594U 26018F   26041.16668981 -.00005378  00000+0 -27348-4 0  9998
2 67594  97.2796 105.5573 0000974  89.5324 184.0476 15.80821437  2922
STARLINK-36628          
1 67595U 26018G   26041.16668981  .00019195  00000+0  10074-3 0  9996
2 67595  97.2782 105.5588 0001229  68.9999 209.2692 15.80813170  2922
STARLINK-36629          
1 67596U 26018H   26041.16668981  .00095321  00000+0  49370-3 0  9993
2 67596  97.2783 105.5615 0001548  90.8030 193.2932 15.80783118  2926
STARLINK-36384          
1 67597U 26018J   26041.16668981  .00060374  00000+0  31415-3 0  9995
2 67597  97.2782 105.5639 0001413  90.7776 199.5804 15.80788175  2979
STARLINK-36358          
1 67598U 26018K   26041.16668981  .00081206  00000+0  42152-3 0  9993
2 67598  97.2780 105.5654 0001345  87.2147 207.4594 15.80775970  2965
STARLINK-36582          
1 67599U 26018L   26041.16668981  .00044194  00000+0  23039-3 0  9992
2 67599  97.2782 105.5687 0001023  80.7071 220.7331 15.80807670  3029
STARLINK-36640          
1 67600U 26018M   26041.16668981 -.00440831  00000+0 -23889-2 0  9997
2 67600  97.2779 105.5727 0001261  83.6479 229.2042 15.81086281  2931
