CCSDS_OMM_VERS = 2.0
CREATION_DATE  = 
ORIGINATOR     = 

OBJECT_NAME    = STARLINK-36641
OBJECT_ID      = 2026-018A
CENTER_NAME    = EARTH
REF_FRAME      = TEME
TIME_SYSTEM    = UTC
MEAN_ELEMENT_THEORY = SGP/SGP4

EPOCH          = 2026-02-10T04:00:01.999584
MEAN_MOTION    = 15.80828619
ECCENTRICITY   = .0001653
INCLINATION    = 97.2811
RA_OF_ASC_NODE = 105.5457
ARG_OF_PERICENTER = 84.6895
MEAN_ANOMALY   = 160.3789

EPHEMERIS_TYPE = 0
CLASSIFICATION_TYPE = U
NORAD_CAT_ID   = 67589
ELEMENT_SET_NO = 999
REV_AT_EPOCH   = 291
BSTAR          = .66424E-4
MEAN_MOTION_DOT = .12607E-3
MEAN_MOTION_DDOT = 0

CCSDS_OMM_VERS = 2.0
CREATION_DATE  = 
ORIGINATOR     = 

OBJECT_NAME    = STARLINK-36376
OBJECT_ID      = 2026-018B
CENTER_NAME    = EARTH
REF_FRAME      = TEME
TIME_SYSTEM    = UTC
MEAN_ELEMENT_THEORY = SGP/SGP4

EPOCH          = 2026-02-10T04:00:01.999584
MEAN_MOTION    = 15.80791182
ECCENTRICITY   = .0001372
INCLINATION    = 97.2796
RA_OF_ASC_NODE = 105.5476
ARG_OF_PERICENTER = 82.0967
MEAN_ANOMALY   = 168.1739

EPHEMERIS_TYPE = 0
CLASSIFICATION_TYPE = U
NORAD_CAT_ID   = 67590
ELEMENT_SET_NO = 999
REV_AT_EPOCH   = 296
BSTAR          = .41285E-3
MEAN_MOTION_DOT = .79572E-3
MEAN_MOTION_DDOT = 0

CCSDS_OMM_VERS = 2.0
CREATION_DATE  = 
ORIGINATOR     = 

OBJECT_NAME    = STARLINK-36391
OBJECT_ID      = 2026-018C
CENTER_NAME    = EARTH
REF_FRAME      = TEME
TIME_SYSTEM    = UTC
MEAN_ELEMENT_THEORY = SGP/SGP4

EPOCH          = 2026-02-10T04:00:01.999584
MEAN_MOTION    = 15.80802764
ECCENTRICITY   = .0001689
INCLINATION    = 97.2798
RA_OF_ASC_NODE = 105.5504
ARG_OF_PERICENTER = 86.4587
MEAN_ANOMALY   = 170.0255

EPHEMERIS_TYPE = 0
CLASSIFICATION_TYPE = U
NORAD_CAT_ID   = 67591
ELEMENT_SET_NO = 999
REV_AT_EPOCH   = 296
BSTAR          = .30302E-3
MEAN_MOTION_DOT = .58255E-3
MEAN_MOTION_DDOT = 0

CCSDS_OMM_VERS = 2.0
CREATION_DATE  = 
ORIGINATOR     = 

OBJECT_NAME    = STARLINK-36603
OBJECT_ID      = 2026-018D
CENTER_NAME    = EARTH
REF_FRAME      = TEME
TIME_SYSTEM    = UTC
MEAN_ELEMENT_THEORY = SGP/SGP4

EPOCH          = 2026-02-10T04:00:01.999584
MEAN_MOTION    = 15.80782616
ECCENTRICITY   = .0000954
INCLINATION    = 97.2796
RA_OF_ASC_NODE = 105.5522
ARG_OF_PERICENTER = 70.5033
MEAN_ANOMALY   = 190.2211

EPHEMERIS_TYPE = 0
CLASSIFICATION_TYPE = U
NORAD_CAT_ID   = 67592
ELEMENT_SET_NO = 999
REV_AT_EPOCH   = 293
BSTAR          = .61342E-3
MEAN_MOTION_DOT = .118785E-2
MEAN_MOTION_DDOT = 0

CCSDS_OMM_VERS = 2.0
CREATION_DATE  = 
ORIGINATOR     = 

OBJECT_NAME    = STARLINK-36634
OBJECT_ID      = 2026-018E
CENTER_NAME    = EARTH
REF_FRAME      = TEME
TIME_SYSTEM    = UTC
MEAN_ELEMENT_THEORY = SGP/SGP4

EPOCH          = 2026-02-10T04:00:01.999584
MEAN_MOTION    = 15.80806020
ECCENTRICITY   = .0001472
INCLINATION    = 97.2798
RA_OF_ASC_NODE = 105.5547
ARG_OF_PERICENTER = 71.3472
MEAN_ANOMALY   = 195.9180

EPHEMERIS_TYPE = 0
CLASSIFICATION_TYPE = U
NORAD_CAT_ID   = 67593
ELEMENT_SET_NO = 999
REV_AT_EPOCH   = 292
BSTAR          = .19878E-3
MEAN_MOTION_DOT = .38084E-3
MEAN_MOTION_DDOT = 0

CCSDS_OMM_VERS = 2.0
CREATION_DATE  = 
ORIGINATOR     = 

OBJECT_NAME    = STARLINK-36638
OBJECT_ID      = 2026-018F
CENTER_NAME    = EARTH
REF_FRAME      = TEME
TIME_SYSTEM    = UTC
MEAN_ELEMENT_THEORY = SGP/SGP4

EPOCH          = 2026-02-10T04:00:01.999584
MEAN_MOTION    = 15.80821437
ECCENTRICITY   = .0000974
INCLINATION    = 97.2796
RA_OF_ASC_NODE = 105.5573
ARG_OF_PERICENTER = 89.5324
MEAN_ANOMALY   = 184.0476

EPHEMERIS_TYPE = 0
CLASSIFICATION_TYPE = U
NORAD_CAT_ID   = 67594
ELEMENT_SET_NO = 999
REV_AT_EPOCH   = 292
BSTAR          = -.27348E-4
MEAN_MOTION_DOT = -.5378E-4
MEAN_MOTION_DDOT = 0

CCSDS_OMM_VERS = 2.0
CREATION_DATE  = 
ORIGINATOR     = 

OBJECT_NAME    = STARLINK-36628
OBJECT_ID      = 2026-018G
CENTER_NAME    = EARTH
REF_FRAME      = TEME
TIME_SYSTEM    = UTC
MEAN_ELEMENT_THEORY = SGP/SGP4

EPOCH          = 2026-02-10T04:00:01.999584
MEAN_MOTION    = 15.80813170
ECCENTRICITY   = .0001229
INCLINATION    = 97.2782
RA_OF_ASC_NODE = 105.5588
ARG_OF_PERICENTER = 68.9999
MEAN_ANOMALY   = 209.2692

EPHEMERIS_TYPE = 0
CLASSIFICATION_TYPE = U
NORAD_CAT_ID   = 67595
ELEMENT_SET_NO = 999
REV_AT_EPOCH   = 292
BSTAR          = .10074E-3
MEAN_MOTION_DOT = .19195E-3
MEAN_MOTION_DDOT = 0

CCSDS_OMM_VERS = 2.0
CREATION_DATE  = 
ORIGINATOR     = 

OBJECT_NAME    = STARLINK-36629
OBJECT_ID      = 2026-018H
CENTER_NAME    = EARTH
REF_FRAME      = TEME
TIME_SYSTEM    = UTC
MEAN_ELEMENT_THEORY = SGP/SGP4

EPOCH          = 2026-02-10T04:00:01.999584
MEAN_MOTION    = 15.80783118
ECCENTRICITY   = .0001548
INCLINATION    = 97.2783
RA_OF_ASC_NODE = 105.5615
ARG_OF_PERICENTER = 90.8030
MEAN_ANOMALY   = 193.2932

EPHEMERIS_TYPE = 0
CLASSIFICATION_TYPE = U
NORAD_CAT_ID   = 67596
ELEMENT_SET_NO = 999
REV_AT_EPOCH   = 292
BSTAR          = .4937E-3
MEAN_MOTION_DOT = .95321E-3
MEAN_MOTION_DDOT = 0

CCSDS_OMM_VERS = 2.0
CREATION_DATE  = 
ORIGINATOR     = 

OBJECT_NAME    = STARLINK-36384
OBJECT_ID      = 2026-018J
CENTER_NAME    = EARTH
REF_FRAME      = TEME
TIME_SYSTEM    = UTC
MEAN_ELEMENT_THEORY = SGP/SGP4

EPOCH          = 2026-02-10T04:00:01.999584
MEAN_MOTION    = 15.80788175
ECCENTRICITY   = .0001413
INCLINATION    = 97.2782
RA_OF_ASC_NODE = 105.5639
ARG_OF_PERICENTER = 90.7776
MEAN_ANOMALY   = 199.5804

EPHEMERIS_TYPE = 0
CLASSIFICATION_TYPE = U
NORAD_CAT_ID   = 67597
ELEMENT_SET_NO = 999
REV_AT_EPOCH   = 297
BSTAR          = .31415E-3
MEAN_MOTION_DOT = .60374E-3
MEAN_MOTION_DDOT = 0

CCSDS_OMM_VERS = 2.0
CREATION_DATE  = 
ORIGINATOR     = 

OBJECT_NAME    = STARLINK-36358
OBJECT_ID      = 2026-018K
CENTER_NAME    = EARTH
REF_FRAME      = TEME
TIME_SYSTEM    = UTC
MEAN_ELEMENT_THEORY = SGP/SGP4

EPOCH          = 2026-02-10T04:00:01.999584
MEAN_MOTION    = 15.80775970
ECCENTRICITY   = .0001345
INCLINATION    = 97.2780
RA_OF_ASC_NODE = 105.5654
ARG_OF_PERICENTER = 87.2147
MEAN_ANOMALY   = 207.4594

EPHEMERIS_TYPE = 0
CLASSIFICATION_TYPE = U
NORAD_CAT_ID   = 67598
ELEMENT_SET_NO = 999
REV_AT_EPOCH   = 296
BSTAR          = .42152E-3
MEAN_MOTION_DOT = .81206E-3
MEAN_MOTION_DDOT = 0

CCSDS_OMM_VERS = 2.0
CREATION_DATE  = 
ORIGINATOR     = 

OBJECT_NAME    = STARLINK-36582
OBJECT_ID      = 2026-018L
CENTER_NAME    = EARTH
REF_FRAME      = TEME
TIME_SYSTEM    = UTC
MEAN_ELEMENT_THEORY = SGP/SGP4

EPOCH          = 2026-02-10T04:00:01.999584
MEAN_MOTION    = 15.80807670
ECCENTRICITY   = .0001023
INCLINATION    = 97.2782
RA_OF_ASC_NODE = 105.5687
ARG_OF_PERICENTER = 80.7071
MEAN_ANOMALY   = 220.7331

EPHEMERIS_TYPE = 0
CLASSIFICATION_TYPE = U
NORAD_CAT_ID   = 67599
ELEMENT_SET_NO = 999
REV_AT_EPOCH   = 302
BSTAR          = .23039E-3
MEAN_MOTION_DOT = .44194E-3
MEAN_MOTION_DDOT = 0

CCSDS_OMM_VERS = 2.0
CREATION_DATE  = 
ORIGINATOR     = 

OBJECT_NAME    = STARLINK-36640
OBJECT_ID      = 2026-018M
CENTER_NAME    = EARTH
REF_FRAME      = TEME
TIME_SYSTEM    = UTC
MEAN_ELEMENT_THEORY = SGP/SGP4

EPOCH          = 2026-02-10T04:00:01.999584
MEAN_MOTION    = 15.81086281
ECCENTRICITY   = .0001261
INCLINATION    = 97.2779
RA_OF_ASC_NODE = 105.5727
ARG_OF_PERICENTER = 83.6479
MEAN_ANOMALY   = 229.2042

EPHEMERIS_TYPE = 0
CLASSIFICATION_TYPE = U
NORAD_CAT_ID   = 67600
ELEMENT_SET_NO = 999
REV_AT_EPOCH   = 293
BSTAR          = -.23889E-2
MEAN_MOTION_DOT = -.440831E-2
MEAN_MOTION_DDOT = 0

